[{"OBJECT_NAME":"DONGPO 10","OBJECT_ID":"2022-167H","EPOCH":"2026-03-09T22:44:56.137344","MEAN_MOTION":15.322785,"ECCENTRICITY":0.00061655,"INCLINATION":97.685,"RA_OF_ASC_NODE":235.0962,"ARG_OF_PERICENTER":106.9526,"MEAN_ANOMALY":253.2392,"EPHEMERIS_TYPE":0,"CLASSIFICATION_TYPE":"U","NORAD_CAT_ID":54689,"ELEMENT_SET_NO":999,"REV_AT_EPOCH":18015,"BSTAR":0.00049390523,"MEAN_MOTION_DOT":0.00015333,"MEAN_MOTION_DDOT":0},{"OBJECT_NAME":"STARLINK-34716","OBJECT_ID":"2025-190B","EPOCH":"2026-03-09T13:11:50.296416","MEAN_MOTION":15.30187279,"ECCENTRICITY":0.00010175,"INCLINATION":53.1589,"RA_OF_ASC_NODE":168.8406,"ARG_OF_PERICENTER":68.7579,"MEAN_ANOMALY":291.3531,"EPHEMERIS_TYPE":0,"CLASSIFICATION_TYPE":"U","NORAD_CAT_ID":65352,"ELEMENT_SET_NO":999,"REV_AT_EPOCH":2973,"BSTAR":0.00077174927,"MEAN_MOTION_DOT":0.00022558,"MEAN_MOTION_DDOT":0}]
